[{"OBJECT_NAME":"CARTOSAT-3","OBJECT_ID":"2019-081A","EPOCH":"2026-03-09T23:11:39.074208","MEAN_MOTION":15.19179249,"ECCENTRICITY":0.00130254,"INCLINATION":97.4422,"RA_OF_ASC_NODE":132.3705,"ARG_OF_PERICENTER":136.2078,"MEAN_ANOMALY":224.0192,"EPHEMERIS_TYPE":0,"CLASSIFICATION_TYPE":"U","NORAD_CAT_ID":44804,"ELEMENT_SET_NO":999,"REV_AT_EPOCH":34840,"BSTAR":0.0001965971,"MEAN_MOTION_DOT":4.075e-5,"MEAN_MOTION_DDOT":0},{"OBJECT_NAME":"SPACEEYE-T1","OBJECT_ID":"2025-052V","EPOCH":"2026-03-09T15:50:33.246528","MEAN_MOTION":15.21501707,"ECCENTRICITY":0.00061242,"INCLINATION":97.4063,"RA_OF_ASC_NODE":322.8058,"ARG_OF_PERICENTER":126.7741,"MEAN_ANOMALY":233.4058,"EPHEMERIS_TYPE":0,"CLASSIFICATION_TYPE":"U","NORAD_CAT_ID":63229,"ELEMENT_SET_NO":999,"REV_AT_EPOCH":5470,"BSTAR":0.00031827215,"MEAN_MOTION_DOT":7.097e-5,"MEAN_MOTION_DDOT":0}]
